{
  "type": "FeatureCollection",
  "features": [
    {
      "type": "Feature",
      "properties": {
        "norad_id": 30884,
        "name": "FENGYUN 1C DEB",
        "group": "fengyun-1c-debris",
        "lat": -15.592508809885858,
        "lon": -0.5100837036120174,
        "alt_km": 627.4486758019711,
        "timestamp": "2025-12-27T17:24:57.684634+00:00",
        "meta_object_name": "FENGYUN 1C DEB",
        "meta_object_id": "1999-025AXW",
        "meta_epoch": "2025-12-27T06:04:54.177312",
        "meta_mean_motion": 14.73850564,
        "meta_eccentricity": 0.00655152,
        "meta_inclination": 98.8919,
        "meta_ra_of_asc_node": 356.4685,
        "meta_arg_of_pericenter": 289.9975,
        "meta_mean_anomaly": 69.4184,
        "meta_ephemeris_type": 0,
        "meta_classification_type": "U",
        "meta_norad_cat_id": 30884,
        "meta_element_set_no": 999,
        "meta_rev_at_epoch": 98875,
        "meta_bstar": 0.0021234588,
        "meta_mean_motion_dot": 0.00014357,
        "meta_mean_motion_ddot": 0,
        "tle_line1": "1 30884U 99025AXW 25361.25340483  .00014357  00000+0  21235-2 0  9998",
        "tle_line2": "2 30884  98.8919 356.4685 0065515 289.9975  69.4184 14.73850564988759"
      },
      "geometry": {
        "type": "Point",
        "coordinates": [
          -0.5100837036120174,
          -15.592508809885858
        ]
      }
    },
    {
      "type": "Feature",
      "properties": {
        "norad_id": 30885,
        "name": "FENGYUN 1C DEB",
        "group": "fengyun-1c-debris",
        "lat": 11.617240235795505,
        "lon": 25.17880691178777,
        "alt_km": 690.3710236250836,
        "timestamp": "2025-12-27T17:24:57.684644+00:00",
        "meta_object_name": "FENGYUN 1C DEB",
        "meta_object_id": "1999-025AXX",
        "meta_epoch": "2025-12-27T07:31:07.507776",
        "meta_mean_motion": 14.49692765,
        "meta_eccentricity": 0.00531303,
        "meta_inclination": 99.0272,
        "meta_ra_of_asc_node": 202.8646,
        "meta_arg_of_pericenter": 175.0858,
        "meta_mean_anomaly": 2.1231,
        "meta_ephemeris_type": 0,
        "meta_classification_type": "U",
        "meta_norad_cat_id": 30885,
        "meta_element_set_no": 999,
        "meta_rev_at_epoch": 97188,
        "meta_bstar": 0.002634144,
        "meta_mean_motion_dot": 0.00010282,
        "meta_mean_motion_ddot": 0,
        "tle_line1": "1 30885U 99025AXX 25361.31328134  .00010282  00000+0  26341-2 0  9991",
        "tle_line2": "2 30885  99.0272 202.8646 0053130 175.0858   2.1231 14.49692765971884"
      },
      "geometry": {
        "type": "Point",
        "coordinates": [
          25.17880691178777,
          11.617240235795505
        ]
      }
    },
    {
      "type": "Feature",
      "properties": {
        "norad_id": 30886,
        "name": "FENGYUN 1C DEB",
        "group": "fengyun-1c-debris",
        "lat": 59.90045711261306,
        "lon": -120.87141893683345,
        "alt_km": 799.7568730686071,
        "timestamp": "2025-12-27T17:24:57.684655+00:00",
        "meta_object_name": "FENGYUN 1C DEB",
        "meta_object_id": "1999-025AXY",
        "meta_epoch": "2025-12-26T09:03:56.932128",
        "meta_mean_motion": 14.2288687,
        "meta_eccentricity": 0.0036368,
        "meta_inclination": 99.2088,
        "meta_ra_of_asc_node": 253.9719,
        "meta_arg_of_pericenter": 357.2804,
        "meta_mean_anomaly": 2.817,
        "meta_ephemeris_type": 0,
        "meta_classification_type": "U",
        "meta_norad_cat_id": 30886,
        "meta_element_set_no": 999,
        "meta_rev_at_epoch": 96590,
        "meta_bstar": 0.0018141,
        "meta_mean_motion_dot": 4.058e-05,
        "meta_mean_motion_ddot": 0,
        "tle_line1": "1 30886U 99025AXY 25360.37774227  .00004058  00000+0  18141-2 0  9998",
        "tle_line2": "2 30886  99.2088 253.9719 0036368 357.2804   2.8170 14.22886870965907"
      },
      "geometry": {
        "type": "Point",
        "coordinates": [
          -120.87141893683345,
          59.90045711261306
        ]
      }
    },
    {
      "type": "Feature",
      "properties": {
        "norad_id": 30887,
        "name": "FENGYUN 1C DEB",
        "group": "fengyun-1c-debris",
        "lat": 47.79377090681517,
        "lon": -113.27239789401386,
        "alt_km": 800.0883559130443,
        "timestamp": "2025-12-27T17:24:57.684665+00:00",
        "meta_object_name": "FENGYUN 1C DEB",
        "meta_object_id": "1999-025AXZ",
        "meta_epoch": "2025-12-26T09:12:23.029632",
        "meta_mean_motion": 14.44910575,
        "meta_eccentricity": 0.0263631,
        "meta_inclination": 98.367,
        "meta_ra_of_asc_node": 56.0652,
        "meta_arg_of_pericenter": 246.2467,
        "meta_mean_anomaly": 111.0872,
        "meta_ephemeris_type": 0,
        "meta_classification_type": "U",
        "meta_norad_cat_id": 30887,
        "meta_element_set_no": 999,
        "meta_rev_at_epoch": 98325,
        "meta_bstar": 0.0007523,
        "meta_mean_motion_dot": 3.965e-05,
        "meta_mean_motion_ddot": 0,
        "tle_line1": "1 30887U 99025AXZ 25360.38359988  .00003965  00000+0  75230-3 0  9992",
        "tle_line2": "2 30887  98.3670  56.0652 0263631 246.2467 111.0872 14.44910575983254"
      },
      "geometry": {
        "type": "Point",
        "coordinates": [
          -113.27239789401386,
          47.79377090681517
        ]
      }
    },
    {
      "type": "Feature",
      "properties": {
        "norad_id": 30888,
        "name": "FENGYUN 1C DEB",
        "group": "fengyun-1c-debris",
        "lat": 78.31475675343985,
        "lon": -70.32274567782238,
        "alt_km": 522.6857710081767,
        "timestamp": "2025-12-27T17:24:57.684675+00:00",
        "meta_object_name": "FENGYUN 1C DEB",
        "meta_object_id": "1999-025AYA",
        "meta_epoch": "2025-12-26T21:45:43.883424",
        "meta_mean_motion": 14.94200725,
        "meta_eccentricity": 0.0083989,
        "meta_inclination": 99.4851,
        "meta_ra_of_asc_node": 342.627,
        "meta_arg_of_pericenter": 106.5631,
        "meta_mean_anomaly": 254.4829,
        "meta_ephemeris_type": 0,
        "meta_classification_type": "U",
        "meta_norad_cat_id": 30888,
        "meta_element_set_no": 999,
        "meta_rev_at_epoch": 128,
        "meta_bstar": 0.0013384,
        "meta_mean_motion_dot": 0.00015321,
        "meta_mean_motion_ddot": 0,
        "tle_line1": "1 30888U 99025AYA 25360.90675791  .00015321  00000+0  13384-2 0  9994",
        "tle_line2": "2 30888  99.4851 342.6270 0083989 106.5631 254.4829 14.94200725  1287"
      },
      "geometry": {
        "type": "Point",
        "coordinates": [
          -70.32274567782238,
          78.31475675343985
        ]
      }
    },
    {
      "type": "Feature",
      "properties": {
        "norad_id": 30891,
        "name": "FENGYUN 1C DEB",
        "group": "fengyun-1c-debris",
        "lat": -67.44911460307196,
        "lon": 70.74928682470153,
        "alt_km": 913.8605802391612,
        "timestamp": "2025-12-27T17:24:57.684685+00:00",
        "meta_object_name": "FENGYUN 1C DEB",
        "meta_object_id": "1999-025AYD",
        "meta_epoch": "2025-12-26T02:35:48.252768",
        "meta_mean_motion": 14.05899439,
        "meta_eccentricity": 0.00559138,
        "meta_inclination": 98.7831,
        "meta_ra_of_asc_node": 47.323,
        "meta_arg_of_pericenter": 150.2644,
        "meta_mean_anomaly": 238.3959,
        "meta_ephemeris_type": 0,
        "meta_classification_type": "U",
        "meta_norad_cat_id": 30891,
        "meta_element_set_no": 999,
        "meta_rev_at_epoch": 96170,
        "meta_bstar": 0.0005613859,
        "meta_mean_motion_dot": 8.89e-06,
        "meta_mean_motion_ddot": 0,
        "tle_line1": "1 30891U 99025AYD 25360.10819737  .00000889  00000+0  56139-3 0  9999",
        "tle_line2": "2 30891  98.7831  47.3230 0055913 150.2644 238.3959 14.05899439961707"
      },
      "geometry": {
        "type": "Point",
        "coordinates": [
          70.74928682470153,
          -67.44911460307196
        ]
      }
    },
    {
      "type": "Feature",
      "properties": {
        "norad_id": 30892,
        "name": "FENGYUN 1C DEB",
        "group": "fengyun-1c-debris",
        "lat": -6.41123057405232,
        "lon": 125.14158769279831,
        "alt_km": 811.3188794571333,
        "timestamp": "2025-12-27T17:24:57.684696+00:00",
        "meta_object_name": "FENGYUN 1C DEB",
        "meta_object_id": "1999-025AYE",
        "meta_epoch": "2025-12-13T14:04:34.549536",
        "meta_mean_motion": 14.18924802,
        "meta_eccentricity": 0.00379168,
        "meta_inclination": 99.663,
        "meta_ra_of_asc_node": 290.842,
        "meta_arg_of_pericenter": 186.6804,
        "meta_mean_anomaly": 173.3868,
        "meta_ephemeris_type": 0,
        "meta_classification_type": "U",
        "meta_norad_cat_id": 30892,
        "meta_element_set_no": 999,
        "meta_rev_at_epoch": 64315,
        "meta_bstar": 0.00057005886,
        "meta_mean_motion_dot": 1.145e-05,
        "meta_mean_motion_ddot": 0,
        "tle_line1": "1 30892U 99025AYE 25347.58651099  .00001145  00000+0  57006-3 0  9992",
        "tle_line2": "2 30892  99.6630 290.8420 0037916 186.6804 173.3868 14.18924802643155"
      },
      "geometry": {
        "type": "Point",
        "coordinates": [
          125.14158769279831,
          -6.41123057405232
        ]
      }
    }
  ]
}